{
  "norad_id": 68546,
  "name": "STARLINK-37290",
  "history": [
    {
      "epoch": "2026-04-09T20:00:01.999008Z",
      "apogee_km": 276.8138161649076,
      "perigee_km": 275.68656297499456,
      "latitude_deg": -45.892424456986255,
      "longitude_deg": 40.5294648149081,
      "height_km": 292.0407421710429,
      "semi_major_axis_km": 6654.387189569951,
      "eccentricity": 8.47e-05,
      "inclination_deg": 53.1588,
      "raan_deg": 228.8378,
      "arg_perigee_deg": 49.5615,
      "mean_anomaly_deg": 247.0337,
      "mean_motion_rev_day": 15.99339493
    }
  ]
}