STARLINK-37290          
1 68546U 26070E   26099.83335647 -.00902318  27394-3 -17796-2 0  9994
2 68546  53.1588 228.8378 0000847  49.5615 247.0337 15.99339493  2382
